NORAD_CAT_ID,OBJECT_NAME,OBJECT_TYPE,EPOCH,MEAN_MOTION,ECCENTRICITY,INCLINATION,RA_OF_ASC_NODE,ARG_OF_PERICENTER,MEAN_ANOMALY,BSTAR,MEAN_MOTION_DOT,MEAN_MOTION_DDOT,TLE_LINE0,TLE_LINE1,TLE_LINE2,SEMIMAJOR_AXIS,PERIOD,APOGEE,PERIGEE,DECAYED
52687.0,STARLINK-3981,PAYLOAD,2023-10-08 19:28:20,15.08844742,0.0001119,53.2155,147.5174,90.4031,269.709,0.00028294,4.219e-05,0.0,0 STARLINK-3981,1 52687U 22053AH  23281.81135408  .00004219  00000-0  28294-3 0  9990,2 52687  53.2155 147.5174 0001119  90.4031 269.7090 15.08844742 77469,6917.866,95.437,540.505,538.957,0.0
52687.0,STARLINK-3981,PAYLOAD,2023-10-08 21:03:44,15.08840627,0.0001444,53.2147,147.2183,82.7626,277.353,9.8962e-05,1.287e-05,0.0,0 STARLINK-3981,1 52687U 22053AH  23281.87759520  .00001287  00000-0  98962-4 0  9995,2 52687  53.2147 147.2183 0001444  82.7626 277.3530 15.08840627 77846,6917.878,95.438,540.742,538.745,0.0
52687.0,STARLINK-3981,PAYLOAD,2023-10-09 08:11:26,15.08848726,0.0001374,53.2155,145.1376,74.0218,286.0926,0.0002805,4.18e-05,0.0,0 STARLINK-3981,1 52687U 22053AH  23282.34127357  .00004180  00000-0  28050-3 0  9990,2 52687  53.2155 145.1376 0001374  74.0218 286.0926 15.08848726 77911,6917.854,95.437,540.669,538.768,0.0
52687.0,STARLINK-3981,PAYLOAD,2023-10-09 14:32:58,15.08840977,0.0001742,53.2156,143.9511,78.7785,281.3403,0.00015556,2.189e-05,0.0,0 STARLINK-3981,1 52687U 22053AH  23282.60623664  .00002189  00000-0  15556-3 0  9995,2 52687  53.2156 143.9511 0001742  78.7785 281.3403 15.08840977 77589,6917.877,95.437,540.947,538.537,0.0
52687.0,STARLINK-3981,PAYLOAD,2023-10-09 20:54:31,15.08835957,0.0001512,53.2153,142.7587,74.0445,286.0714,-1.6688e-05,-5.54e-06,0.0,0 STARLINK-3981,1 52687U 22053AH  23282.87119839 -.00000554  00000-0 -16688-4 0  9992,2 52687  53.2153 142.7587 0001512  74.0445 286.0714 15.08835957 77997,6917.893,95.438,540.804,538.712,0.0
52687.0,STARLINK-3981,PAYLOAD,2023-10-10 14:23:45,15.08843192,0.0001445,53.2155,139.489,77.2975,282.8178,0.00023832,3.507e-05,0.0,0 STARLINK-3981,1 52687U 22053AH  23283.59983740  .00003507  00000-0  23832-3 0  9999,2 52687  53.2155 139.4890 0001445  77.2975 282.8178 15.08843192 78109,6917.871,95.437,540.735,538.736,0.0
52687.0,STARLINK-3981,PAYLOAD,2023-10-10 19:09:55,15.08845531,0.0001337,53.2149,138.5955,80.0098,280.1045,0.00025186,3.723e-05,0.0,0 STARLINK-3981,1 52687U 22053AH  23283.79855669  .00003723  00000-0  25186-3 0  9993,2 52687  53.2149 138.5955 0001337  80.0098 280.1045 15.08845531 77766,6917.863,95.437,540.653,538.804,0.0
52687.0,STARLINK-3981,PAYLOAD,2023-10-10 20:45:18,15.08848118,0.0001301,53.2148,138.2978,85.9019,274.2122,0.00023168,3.402e-05,0.0,0 STARLINK-3981,1 52687U 22053AH  23283.86479443  .00003402  00000-0  23168-3 0  9995,2 52687  53.2148 138.2978 0001301  85.9019 274.2122 15.08848118 78142,6917.856,95.437,540.621,538.821,0.0
52687.0,STARLINK-3981,PAYLOAD,2023-10-10 23:56:04,15.08850636,0.0001305,53.2147,137.7027,87.0114,273.1027,0.00028258,4.213e-05,0.0,0 STARLINK-3981,1 52687U 22053AH  23283.99727315  .00004213  00000-0  28258-3 0  9999,2 52687  53.2147 137.7027 0001305  87.0114 273.1027 15.08850636 78165,6917.848,95.437,540.616,538.81,0.0
52687.0,STARLINK-3981,PAYLOAD,2023-10-11 19:00:42,15.0884118,0.0001456,53.2154,134.1351,81.7368,278.3789,0.00016723,2.375e-05,0.0,0 STARLINK-3981,1 52687U 22053AH  23284.79215989  .00002375  00000-0  16723-3 0  9998,2 52687  53.2154 134.1351 0001456  81.7368 278.3789 15.08841180 77911,6917.877,95.437,540.749,538.735,0.0
52687.0,STARLINK-3981,PAYLOAD,2023-10-12 09:19:10,15.08850089,0.0001312,53.2144,131.458,88.3087,271.8055,0.00030494,4.57e-05,0.0,0 STARLINK-3981,1 52687U 22053AH  23285.38831514  .00004570  00000-0  30494-3 0  9992,2 52687  53.2144 131.4580 0001312  88.3087 271.8055 15.08850089 78379,6917.85,95.437,540.622,538.807,0.0
52687.0,STARLINK-3981,PAYLOAD,2023-10-12 20:26:51,15.08866419,0.0001325,53.2145,129.3766,87.2361,272.8783,0.00084221,0.00013151,0.0,0 STARLINK-3981,1 52687U 22053AH  23285.85198962  .00013151  00000-0  84221-3 0  9999,2 52687  53.2145 129.3766 0001325  87.2361 272.8783 15.08866419 78079,6917.8,95.436,540.581,538.748,0.0
52687.0,STARLINK-3981,PAYLOAD,2023-10-13 18:42:16,15.08848858,0.0001333,53.2146,125.2135,91.3851,268.7294,0.00044974,6.879e-05,0.0,0 STARLINK-3981,1 52687U 22053AH  23286.77935193  .00006879  00000-0  44974-3 0  9996,2 52687  53.2146 125.2135 0001333  91.3851 268.7294 15.08848858 78218,6917.853,95.437,540.64,538.796,0.0
52687.0,STARLINK-3981,PAYLOAD,2023-10-13 20:17:39,15.08846508,0.0001365,53.2147,124.9167,77.7317,282.3828,0.00042626,6.504e-05,0.0,0 STARLINK-3981,1 52687U 22053AH  23286.84559286  .00006504  00000-0  42626-3 0  9996,2 52687  53.2147 124.9167 0001365  77.7317 282.3828 15.08846508 78596,6917.86,95.437,540.67,538.781,0.0
52687.0,STARLINK-3981,PAYLOAD,2023-10-13 23:28:25,15.08846831,0.0001369,53.2154,124.3206,79.4936,280.621,0.00050879,7.82e-05,0.0,0 STARLINK-3981,1 52687U 22053AH  23286.97807261  .00007820  00000-0  50879-3 0  9990,2 52687  53.2154 124.3206 0001369  79.4936 280.6210 15.08846831 78610,6917.86,95.437,540.672,538.777,0.0
52687.0,STARLINK-3981,PAYLOAD,2023-10-14 20:08:25,15.08848697,0.0001344,53.2144,120.454,108.1058,252.0081,0.00026669,3.96e-05,0.0,0 STARLINK-3981,1 52687U 22053AH  23287.83918908  .00003960  00000-0  26669-3 0  9998,2 52687  53.2144 120.4540 0001344 108.1058 252.0081 15.08848697 78379,6917.854,95.437,540.649,538.789,0.0
52687.0,STARLINK-3981,PAYLOAD,2023-10-15 05:40:44,15.08841554,0.0001278,53.2152,118.6706,80.417,279.6967,0.00027142,4.035e-05,0.0,0 STARLINK-3981,1 52687U 22053AH  23288.23663118  .00004035  00000-0  27142-3 0  9994,2 52687  53.2152 118.6706 0001278  80.4170 279.6967 15.08841554 78434,6917.876,95.437,540.625,538.857,0.0
52687.0,STARLINK-3981,PAYLOAD,2023-10-15 13:37:41,15.08826486,0.000124,53.2146,117.1826,88.0971,272.0163,-0.00020458,-3.541e-05,0.0,0 STARLINK-3981,1 52687U 22053AH  23288.56783751 -.00003541  00000-0 -20458-3 0  9992,2 52687  53.2146 117.1826 0001240  88.0971 272.0163 15.08826486 78854,6917.922,95.438,540.645,538.929,0.0
52687.0,STARLINK-3981,PAYLOAD,2023-10-15 19:59:13,15.08832002,0.0001255,53.2149,115.9928,89.1325,270.9811,-8.6028e-06,-4.25e-06,0.0,0 STARLINK-3981,1 52687U 22053AH  23288.83279864 -.00000425  00000-0 -86028-5 0  9992,2 52687  53.2149 115.9928 0001255  89.1325 270.9811 15.08832002 78529,6917.905,95.438,540.638,538.902,0.0
52687.0,STARLINK-3981,PAYLOAD,2023-10-15 21:34:36,15.08832429,0.0001248,53.2147,115.6956,89.457,270.6565,7.2675e-07,-2.76e-06,0.0,0 STARLINK-3981,1 52687U 22053AH  23288.89903808 -.00000276  00000-0  72675-6 0  9997,2 52687  53.2147 115.6956 0001248  89.4570 270.6565 15.08832429 78900,6917.904,95.438,540.632,538.905,0.0
52687.0,STARLINK-3981,PAYLOAD,2023-10-16 05:31:32,15.08838057,0.0001246,53.2148,114.2087,85.8797,274.2338,0.00019273,2.781e-05,0.0,0 STARLINK-3981,1 52687U 22053AH  23289.23023858  .00002781  00000-0  19273-3 0  9998,2 52687  53.2148 114.2087 0001246  85.8797 274.2338 15.08838057 78956,6917.886,95.438,540.613,538.889,0.0
52687.0,STARLINK-3981,PAYLOAD,2023-10-16 16:39:14,15.08846859,0.0001226,53.2147,112.1274,83.3828,276.7303,0.00042813,6.534e-05,0.0,0 STARLINK-3981,1 52687U 22053AH  23289.69391774  .00006534  00000-0  42813-3 0  9999,2 52687  53.2147 112.1274 0001226  83.3828 276.7303 15.08846859 78651,6917.859,95.437,540.573,538.876,0.0
52687.0,STARLINK-3981,PAYLOAD,2023-10-17 11:43:52,15.08842876,0.000157,53.214,108.5597,81.9939,278.1231,0.00021161,3.082e-05,0.0,0 STARLINK-3981,1 52687U 22053AH  23290.48880015  .00003082  00000-0  21161-3 0  9997,2 52687  53.2140 108.5597 0001570  81.9939 278.1231 15.08842876 79146,6917.872,95.437,540.823,538.65,0.0
52687.0,STARLINK-3981,PAYLOAD,2023-10-17 18:05:24,15.08842345,0.0001592,53.2141,107.3704,81.4905,278.6268,0.00019376,2.797e-05,0.0,0 STARLINK-3981,1 52687U 22053AH  23290.75376061  .00002797  00000-0  19376-3 0  9995,2 52687  53.2141 107.3704 0001592  81.4905 278.6268 15.08842345 78815,6917.873,95.437,540.84,538.637,0.0
52687.0,STARLINK-3981,PAYLOAD,2023-10-17 21:16:11,15.08840841,0.0001506,53.2145,106.7759,81.1475,278.9688,0.00016654,2.364e-05,0.0,0 STARLINK-3981,1 52687U 22053AH  23290.88624137  .00002364  00000-0  16654-3 0  9995,2 52687  53.2145 106.7759 0001506  81.1475 278.9688 15.08840841 79208,6917.878,95.438,540.785,538.701,0.0
52687.0,STARLINK-3981,PAYLOAD,2023-10-18 14:45:25,15.08846511,0.0001325,53.215,103.5031,85.9547,274.1597,0.00016806,2.388e-05,0.0,0 STARLINK-3981,1 52687U 22053AH  23291.61487908  .00002388  00000-0  16806-3 0  9995,2 52687  53.2150 103.5031 0001325  85.9547 274.1597 15.08846511 79312,6917.86,95.437,540.642,538.809,0.0
52687.0,STARLINK-3981,PAYLOAD,2023-10-19 11:25:24,15.08876138,0.0001631,53.2142,99.6382,88.6412,271.4766,0.00061284,9.488e-05,0.0,0 STARLINK-3981,1 52687U 22053AH  23292.47597796  .00009488  00000-0  61284-3 0  9995,2 52687  53.2142  99.6382 0001631  88.6412 271.4766 15.08876138 79077,6917.77,95.435,540.763,538.507,0.0
52687.0,STARLINK-3981,PAYLOAD,2023-10-19 17:46:58,15.08842836,0.0001525,53.2142,98.4485,89.1236,270.9931,-6.0223e-05,-1.246e-05,0.0,0 STARLINK-3981,1 52687U 22053AH  23292.74094920 -.00001246  00000-0 -60223-4 0  9995,2 52687  53.2142  98.4485 0001525  89.1236 270.9931 15.08842836 79111,6917.872,95.437,540.792,538.682,0.0
52687.0,STARLINK-3981,PAYLOAD,2023-10-19 20:57:44,15.08840334,0.0001354,53.2144,97.8547,86.2547,273.86,-0.00011269,-2.081e-05,0.0,0 STARLINK-3981,1 52687U 22053AH  23292.87342938 -.00002081  00000-0 -11269-3 0  9997,2 52687  53.2144  97.8547 0001354  86.2547 273.8600 15.08840334 79507,6917.879,95.438,540.681,538.808,0.0
52687.0,STARLINK-3981,PAYLOAD,2023-10-20 11:16:13,15.08824814,0.000141,53.2146,95.1771,95.9432,264.172,-0.00035088,-5.865e-05,0.0,0 STARLINK-3981,1 52687U 22053AH  23293.46959691 -.00005865  00000-0 -35088-3 0  9991,2 52687  53.2146  95.1771 0001410  95.9432 264.1720 15.08824814 79222,6917.927,95.439,540.767,538.816,0.0
